OSCAR 7 (AO-7)          
1 07530U 74089B   18060.53231341 -.00000054  00000-0 -56954-4 0  9994
2 07530 101.6731  29.5276 0012004 182.1875 291.1079 12.53631367980874
UOSAT 2 (UO-11)         
1 14781U 84021B   18060.58421849  .00000052  00000-0  12631-4 0  9996
2 14781  97.6638 101.3073 0009974  78.7273 281.5062 14.82983595807496
LUSAT (LO-19)           
1 20442U 90005G   18060.81584140 -.00000003  00000-0  14830-4 0  9996
2 20442  98.6013   0.0228 0012865 105.5966 254.6639 14.32887862468515
ITAMSAT (IO-26)         
1 22826U 93061D   18060.51116931 -.00000014  00000-0  12413-4 0  9992
2 22826  98.8444  34.7985 0007944 293.8631  66.1718 14.30353909274112
RADIO ROSTO (RS-15)     
1 23439U 94085A   18060.75579448 -.00000047  00000-0 -13855-3 0  9999
2 23439  64.8167 162.5821 0160902 201.2610 257.9215 11.27566562954617
JAS-2 (FO-29)           
1 24278U 96046B   18060.56655397 -.00000015  00000-0  19496-4 0  9999
2 24278  98.5277 274.0871 0350865  30.2852 331.8064 13.53082078 63437
TECHSAT 1B (GO-32)      
1 25397U 98043D   18060.78105629 -.00000019  00000-0  10924-4 0  9994
2 25397  98.6400   3.0564 0001301  24.6629 335.4612 14.23640547 20447
ISS (ZARYA)             
1 25544U 98067A   18060.57835756  .00001767  00000-0  33881-4 0  9999
2 25544  51.6406 195.1666 0002959 141.4622 319.1766 15.54168370101783
PCSAT (NO-44)           
1 26931U 01043C   18060.61375315 -.00000032  00000-0  19618-4 0  9990
2 26931  67.0515 146.9826 0006122 282.5595  77.4821 14.30495358857090
SAUDISAT 1C (SO-50)     
1 27607U 02058C   18060.44211797 -.00000004  00000-0  20151-4 0  9995
2 27607  64.5551  59.3644 0052476 353.9212   6.1246 14.75423539816939
CUTE-1 (CO-55)          
1 27844U 03031E   18060.80318509  .00000054  00000-0  44301-4 0  9996
2 27844  98.6892  71.0320 0009106 327.9241  32.1382 14.22097095760939
CUBESAT XI-IV (CO-57)   
1 27848U 03031J   18060.80307973  .00000036  00000-0  36466-4 0  9996
2 27848  98.6981  71.3928 0009181 338.6853  21.3941 14.21703269760803
MOZHAYETS 4 (RS-22)     
1 27939U 03042A   18060.80322826  .00000062  00000-0  19524-4 0  9998
2 27939  97.9718 202.8229 0014130 126.2433 343.5258 14.66660850771072
CUBESAT XI-V (CO-58)    
1 28895U 05043F   18060.39040304  .00000124  00000-0  32508-4 0  9991
2 28895  97.8920 216.3106 0017831  53.4094 306.8746 14.63513563657877
CUTE-1.7+APD II (CO-65) 
1 32785U 08021C   18060.79776122  .00000188  00000-0  26077-4 0  9995
2 32785  97.5525  78.0764 0014024  40.0551 320.1697 14.88068631533204
DELFI-C3 (DO-64)        
1 32789U 08021G   18060.20410524  .00000638  00000-0  48179-4 0  9993
2 32789  97.5264 117.6922 0011051 310.7738  49.2529 15.05781262535437
SEEDS II (CO-66)        
1 32791U 08021J   18060.52368280  .00000316  00000-0  37770-4 0  9990
2 32791  97.5441  82.9188 0013918  23.5743 336.6110 14.90477401533396
YUBILEINY (RS-30)       
1 32953U 08025A   18060.51218422  .00000032  00000-0  15839-3 0  9991
2 32953  82.4990  79.6442 0020377  85.4282 274.9125 12.43082028443399
KKS-1 (KISEKI)          
1 33499U 09002H   18060.54437068  .00000087  00000-0  20941-4 0  9996
2 33499  98.3501 238.8381 0007968 276.0157  84.0143 14.75298453488881
SWISSCUBE               
1 35932U 09051B   18060.34834740  .00000107  00000-0  35287-4 0  9992
2 35932  98.5276 209.0185 0007932 173.0265 187.1044 14.56125243447701
BEESAT                  
1 35933U 09051C   18060.38338482  .00000088  00000-0  30744-4 0  9990
2 35933  98.5316 210.5319 0005845 183.3120 176.8040 14.56233034447853
ITUPSAT 1               
1 35935U 09051E   18060.37738366  .00000070  00000-0  27095-4 0  9992
2 35935  98.5429 210.7801 0008229 181.2769 178.8407 14.55414132447615
XIWANG-1 (HOPE-1)       
1 36122U 09072B   18060.54143081 -.00000011  00000-0  82744-4 0  9995
2 36122 100.0829  80.1823 0007518   6.5676 353.5535 13.16343596394386
JUGNU                   
1 37839U 11058B   18060.14320911  .00000331  00000-0  34677-4 0  9999
2 37839  19.9623 332.4077 0019046 135.8511  10.3700 14.12610695330071
SRMSAT                  
1 37841U 11058D   18060.14034550  .00000309  00000-0  24779-4 0  9990
2 37841  19.9736  19.3967 0011886  24.6429  78.2216 14.10599360329600
M-CUBED & EXP-1 PRIME   
1 37855U 11061F   18060.65582476  .00001519  00000-0  85492-4 0  9993
2 37855 101.7257  68.1557 0177657  40.4385 320.9876 15.04101902345484
STRAND-1                
1 39090U 13009E   18060.80240043  .00000030  00000-0  25757-4 0  9993
2 39090  98.5318 268.5158 0008113 254.7701 105.2587 14.35012710262429
SOMP                    
1 39134U 13015E   18060.62334086  .00001099  00000-0  61871-4 0  9993
2 39134  64.8627 114.7781 0022818 225.3300 134.5968 15.18847893268567
BEESAT-3                
1 39135U 13015F   18060.47080662  .00000663  00000-0  43847-4 0  9994
2 39135  64.8689 127.2488 0028745 247.1709 112.6380 15.16423778267923
BEESAT-2                
1 39136U 13015G   18060.79889933  .00000791  00000-0  51013-4 0  9994
2 39136  64.8698 128.6910 0029373 247.1870 112.6152 15.15905942268314
ZACUBE-1 (TSHEPISOSAT)  
1 39417U 13066B   18060.67981834  .00000203  00000-0  31966-4 0  9995
2 39417  97.5997  94.9925 0060090 146.1687 214.3383 14.80881987230887
GOMX 1                  
1 39430U 13066Q   18060.49789819  .00000178  00000-0  41763-4 0  9996
2 39430  97.6873  45.1957 0150578 310.9106  47.9134 14.59031141227264
EAGLE 2                 
1 39436U 13066W   18060.32813022  .00067312  00000-0  78706-3 0  9997
2 39436  97.7122 187.9007 0006218 236.0639 124.0027 15.61347853236407
CUBEBUG-2 (LO-74)       
1 39440U 13066AA  18060.52892157  .00000168  00000-0  30428-4 0  9996
2 39440  97.6086  82.1249 0080542 184.1167 175.9390 14.75617982228849
FUNCUBE-1 (AO-73)       
1 39444U 13066AE  18060.52915603  .00000233  00000-0  35134-4 0  9994
2 39444  97.6010  96.2379 0059326 142.5222 218.0151 14.81647824229127
UWE-3                   
1 39446U 13066AG  18060.53300157  .00000172  00000-0  29626-4 0  9990
2 39446  97.6029  88.1281 0070749 165.6875 194.6363 14.78151039228625
SPROUT                  
1 39770U 14029E   18060.84514756  .00000662  00000-0  80601-4 0  9990
2 39770  97.8724 162.8356 0008843 191.6984 168.4040 14.86687029204412
UNISAT-6                
1 40012U 14033C   18060.73942307  .00000159  00000-0  31282-4 0  9993
2 40012  97.8246 300.8930 0058292 184.0397 176.0349 14.73769591198871
DUCHIFAT-1              
1 40021U 14033M   18060.29327575  .00000315  00000-0  38395-4 0  9994
2 40021  97.9177 338.8189 0013085 167.8132 192.3404 14.90209277200886
FUNCUBE-3 (EO-79)       
1 40025U 14033R   18060.60395079  .00000213  00000-0  28861-4 0  9991
2 40025  97.9086 336.2104 0012545 172.5044 187.6362 14.88644293200274
NUDT-PHONESAT           
1 40900U 15049B   18060.55065828  .00001872  00000-0  87776-4 0  9993
2 40900  97.4428  70.0699 0014921  51.1378 309.1187 15.20839341135556
ZDPS 2A                 
1 40901U 15049C   18060.55972914  .00000759  00000-0  41860-4 0  9994
2 40901  97.4599  68.5973 0015189  55.9855 304.2819 15.16878097135343
ZDPS 2B                 
1 40902U 15049D   18060.78300391  .00000737  00000-0  40937-4 0  9994
2 40902  97.4490  67.0191 0015170  52.6866 307.5747 15.16684127135363
XW-2A                   
1 40903U 15049E   18060.65927038  .00001654  00000-0  43386-4 0  9994
2 40903  97.3973  94.3961 0015906  61.8761 298.4090 15.40053376137252
KAITUO 1A               
1 40904U 15049F   18060.87120604  .00000697  00000-0  40866-4 0  9999
2 40904  97.4586  66.4708 0016399  52.9732 356.7123 15.14899478135254
2015-049G               
1 40905U 15049G   18060.74448243  .00000364  00000-0  23639-4 0  9998
2 40905  97.4576  64.6024 0017052  46.8514 313.4140 15.13869661135161
XW-2C                   
1 40906U 15049H   18060.79975362  .00000581  00000-0  34500-4 0  9991
2 40906  97.4597  66.2735 0016299  46.6907 313.5681 15.15034189135238
XW-2D                   
1 40907U 15049J   18060.76250797  .00000611  00000-0  35972-4 0  9995
2 40907  97.4569  65.9478 0015626  45.0885 315.1612 15.15173732135239
LILACSAT 2              
1 40908U 15049K   18060.57562471  .00000309  00000-0  20910-4 0  9990
2 40908  97.4679  65.2591 0017252  45.8747 314.3900 15.13417799135090
XW-2F                   
1 40910U 15049M   18060.72698448  .00000946  00000-0  52187-4 0  9992
2 40910  97.4577  67.0347 0016276  41.6214 318.6254 15.16289047135171
XW-2B                   
1 40911U 15049N   18060.77618467  .00000599  00000-0  35398-4 0  9990
2 40911  97.4607  66.4570 0015531  45.5758 314.6742 15.15122071135132
KAITUO 1B               
1 40912U 15049P   18060.55519748  .00001207  00000-0  61665-4 0  9992
2 40912  97.4513  69.4176 0016591  31.0530  67.3783 15.18478351135336
TIANWANG 1C (TW-1C)     
1 40926U 15051B   18060.78206547  .00007235  00000-0  14367-3 0  9998
2 40926  97.1984 103.6777 0009322 319.6687 132.2626 15.47247130136699
TIANWANG 1A (TW-1A)     
1 40928U 15051D   18060.49442469  .00003001  00000-0  82133-4 0  9997
2 40928  97.1990  96.5795 0012340 359.9439 105.9594 15.38046696136228
LAPAN-A2 (IO-86)        
1 40931U 15052B   18059.91903565  .00000676  00000-0  49304-5 0  9995
2 40931   5.9990 202.1047 0014338 277.2925  82.5994 14.76566087130977
E-ST@R-II               
1 41459U 16025D   18060.41629217  .00001612  00000-0  88029-4 0  9995
2 41459  98.1532 117.3406 0173145 149.2268 211.9240 15.04061390101222
AAUSAT 4                
1 41460U 16025E   18060.82505208  .00003068  00000-0  16240-3 0  9997
2 41460  98.1462 118.1126 0164204 144.6631 216.5567 15.05356218101335
NUSAT 1 (LO-87)         
1 41557U 16033B   18060.65006776  .00001242  00000-0  48069-4 0  9997
2 41557  97.4419 145.0539 0014174 171.3782 188.7704 15.28032154 97733
BEESAT-4                
1 41619U 16040W   18060.24409089  .00001214  00000-0  56575-4 0  9993
2 41619  97.4286 124.8323 0010248 245.0231 114.9941 15.21780179 81676
ALSAT 1N                
1 41789U 16059G   18060.73255277  .00000047  00000-0  18018-4 0  9996
2 41789  98.1322 124.9615 0029657  66.6214 293.8096 14.64130007 76295
CAS-2T & KS-1Q          
1 41847U 16066G   18060.53060876  .00000072  00000-0  21864-4 0  9997
2 41847  98.7593  87.1138 0366080 204.1609 154.2025 14.37863757 68857
NAYIF-1 (EO-88)         
1 42017U 17008BX  18060.56580263  .00001316  00000-0  57160-4 0  9994
2 42017  97.4614 126.2165 0007567  49.1485 311.0407 15.24076129 57674
LILACSAT-1              
1 42725U 98067ME  18060.70856701  .00018872  00000-0  19801-3 0  9997
2 42725  51.6372 184.2395 0004329 191.7843 168.3052 15.64400293 43667
MAX VALIER SAT          
1 42778U 17036P   18060.56426486  .00000828  00000-0  40306-4 0  9996
2 42778  97.4177 122.0008 0014422  88.1058 272.1829 15.21060850 38146
FOX-1B (AO-91)          
1 43017U 17073E   18060.36583292  .00000476  00000-0  43709-4 0  9990
2 43017  97.7012 356.0473 0258813 262.5737  94.6001 14.77924301 15183
FOX-1D (AO-92)          
1 43137U 18004AC  18060.38355608  .00000893  00000-0  41656-4 0  9990
2 43137  97.5478 122.7267 0011139 114.4826 245.7573 15.22454283  7318
